{"type": "FeatureCollection", "features": [ {"type": "Feature", "properties": {"norad_id": 40697, "name": "SENTINEL-2A", "group": "resource", "lat": -80.99665037820203, "lon": 128.10345652080838, "alt_km": 797.0578828991265, "timestamp": "2025-12-09T09:46:47.304246+00:00", "meta": {"OBJECT_NAME": "SENTINEL-2A", "OBJECT_ID": "2015-028A", "EPOCH": "2025-12-08T22:26:20.111136", "MEAN_MOTION": 14.30824256, "ECCENTRICITY": 0.0001045, "INCLINATION": 98.5695, "RA_OF_ASC_NODE": 55.5218, "ARG_OF_PERICENTER": 90.1302, "MEAN_ANOMALY": 270.0001, "EPHEMERIS_TYPE": 0, "CLASSIFICATION_TYPE": "U", "NORAD_CAT_ID": 40697, "ELEMENT_SET_NO": 999, "REV_AT_EPOCH": 54652, "BSTAR": 2.4366053e-05, "MEAN_MOTION_DOT": 2e-07, "MEAN_MOTION_DDOT": 0}, "tle": {"line1": "1 40697U 15028A   25342.93495499  .00000020  00000+0  24366-4 0  9996", "line2": "2 40697  98.5695  55.5218 0001045  90.1302 270.0001 14.30824256546528"}}, "geometry": {"type": "Point", "coordinates": [128.10345652080838, -80.99665037820203]}}, {"type": "Feature", "properties": {"norad_id": 40701, "name": "GAOFEN-8", "group": "resource", "lat": 68.40048265904085, "lon": 1.344253983313863, "alt_km": 438.23961496563425, "timestamp": "2025-12-09T09:46:47.304257+00:00", "meta": {"OBJECT_NAME": "GAOFEN-8", "OBJECT_ID": "2015-030A", "EPOCH": "2025-12-09T04:37:08.548320", "MEAN_MOTION": 15.38353277, "ECCENTRICITY": 0.0011449, "INCLINATION": 97.691, "RA_OF_ASC_NODE": 161.1606, "ARG_OF_PERICENTER": 149.8511, "MEAN_ANOMALY": 210.3394, "EPHEMERIS_TYPE": 0, "CLASSIFICATION_TYPE": "U", "NORAD_CAT_ID": 40701, "ELEMENT_SET_NO": 999, "REV_AT_EPOCH": 58216, "BSTAR": 0.00032101, "MEAN_MOTION_DOT": 0.0001208, "MEAN_MOTION_DDOT": 0}, "tle": {"line1": "1 40701U 15030A   25343.19246005  .00012080  00000+0  32101-3 0  9995", "line2": "2 40701  97.6910 161.1606 0011449 149.8511 210.3394 15.38353277582163"}}, "geometry": {"type": "Point", "coordinates": [1.344253983313863, 68.40048265904085]}}, {"type": "Feature", "properties": {"norad_id": 40718, "name": "CARBONITE 1 (CBNT-1)", "group": "resource", "lat": -10.69796960562539, "lon": 166.0512453565909, "alt_km": 634.1935061304712, "timestamp": "2025-12-09T09:46:47.304267+00:00", "meta": {"OBJECT_NAME": "CARBONITE 1 (CBNT-1)", "OBJECT_ID": "2015-032D", "EPOCH": "2025-12-09T03:20:59.674848", "MEAN_MOTION": 14.82715962, "ECCENTRICITY": 0.0014141, "INCLINATION": 97.6404, "RA_OF_ASC_NODE": 164.3421, "ARG_OF_PERICENTER": 193.063, "MEAN_ANOMALY": 167.022, "EPHEMERIS_TYPE": 0, "CLASSIFICATION_TYPE": "U", "NORAD_CAT_ID": 40718, "ELEMENT_SET_NO": 999, "REV_AT_EPOCH": 56117, "BSTAR": 0.00029179, "MEAN_MOTION_DOT": 2.309e-05, "MEAN_MOTION_DDOT": 0}, "tle": {"line1": "1 40718U 15032D   25343.13957957  .00002309  00000+0  29179-3 0  9998", "line2": "2 40718  97.6404 164.3421 0014141 193.0630 167.0220 14.82715962561179"}}, "geometry": {"type": "Point", "coordinates": [166.0512453565909, -10.69796960562539]}}, {"type": "Feature", "properties": {"norad_id": 40878, "name": "YAOGAN-27", "group": "resource", "lat": -61.94021709120744, "lon": 133.64317025273778, "alt_km": 1203.253083696789, "timestamp": "2025-12-09T09:46:47.304278+00:00", "meta": {"OBJECT_NAME": "YAOGAN-27", "OBJECT_ID": "2015-040A", "EPOCH": "2025-12-08T23:25:20.279424", "MEAN_MOTION": 13.16058269, "ECCENTRICITY": 0.00076725, "INCLINATION": 100.1004, "RA_OF_ASC_NODE": 332.7656, "ARG_OF_PERICENTER": 296.0151, "MEAN_ANOMALY": 64.0172, "EPHEMERIS_TYPE": 0, "CLASSIFICATION_TYPE": "U", "NORAD_CAT_ID": 40878, "ELEMENT_SET_NO": 999, "REV_AT_EPOCH": 49264, "BSTAR": -0.00083404829, "MEAN_MOTION_DOT": -3.59e-06, "MEAN_MOTION_DDOT": 0}, "tle": {"line1": "1 40878U 15040A   25342.97592916 -.00000359  00000+0 -83405-3 0  9992", "line2": "2 40878 100.1004 332.7656 0007672 296.0151  64.0172 13.16058269492649"}}, "geometry": {"type": "Point", "coordinates": [133.64317025273778, -61.94021709120744]}}, {"type": "Feature", "properties": {"norad_id": 40894, "name": "GAOFEN-9 01", "group": "resource", "lat": -81.54015930295598, "lon": 87.2257732241601, "alt_km": 642.2706621972011, "timestamp": "2025-12-09T09:46:47.304288+00:00", "meta": {"OBJECT_NAME": "GAOFEN-9 01", "OBJECT_ID": "2015-047A", "EPOCH": "2025-12-08T22:49:45.011424", "MEAN_MOTION": 14.82406472, "ECCENTRICITY": 0.00286619, "INCLINATION": 97.6546, "RA_OF_ASC_NODE": 22.0703, "ARG_OF_PERICENTER": 46.2678, "MEAN_ANOMALY": 314.0902, "EPHEMERIS_TYPE": 0, "CLASSIFICATION_TYPE": "U", "NORAD_CAT_ID": 40894, "ELEMENT_SET_NO": 999, "REV_AT_EPOCH": 55200, "BSTAR": 0.00022734722, "MEAN_MOTION_DOT": 1.783e-05, "MEAN_MOTION_DDOT": 0}, "tle": {"line1": "1 40894U 15047A   25342.95121541  .00001783  00000+0  22735-3 0  9996", "line2": "2 40894  97.6546  22.0703 0028661  46.2678 314.0902 14.82406472552003"}}, "geometry": {"type": "Point", "coordinates": [87.2257732241601, -81.54015930295598]}}, {"type": "Feature", "properties": {"norad_id": 41026, "name": "YAOGAN-28", "group": "resource", "lat": -74.62576671355313, "lon": 149.00304550180803, "alt_km": 507.37894656416756, "timestamp": "2025-12-09T09:46:47.304299+00:00", "meta": {"OBJECT_NAME": "YAOGAN-28", "OBJECT_ID": "2015-064A", "EPOCH": "2025-12-09T05:23:19.652064", "MEAN_MOTION": 15.24257709, "ECCENTRICITY": 0.001225, "INCLINATION": 97.2808, "RA_OF_ASC_NODE": 121.1164, "ARG_OF_PERICENTER": 137.5449, "MEAN_ANOMALY": 222.6739, "EPHEMERIS_TYPE": 0, "CLASSIFICATION_TYPE": "U", "NORAD_CAT_ID": 41026, "ELEMENT_SET_NO": 999, "REV_AT_EPOCH": 56171, "BSTAR": 0.00044187, "MEAN_MOTION_DOT": 0.00010743, "MEAN_MOTION_DDOT": 0}, "tle": {"line1": "1 41026U 15064A   25343.22453301  .00010743  00000+0  44187-3 0  9997", "line2": "2 41026  97.2808 121.1164 0012250 137.5449 222.6739 15.24257709561711"}}, "geometry": {"type": "Point", "coordinates": [149.00304550180803, -74.62576671355313]}}, {"type": "Feature", "properties": {"norad_id": 41038, "name": "YAOGAN-29", "group": "resource", "lat": 23.605192400028862, "lon": -169.89858905388272, "alt_km": 620.0461687581947, "timestamp": "2025-12-09T09:46:47.304310+00:00", "meta": {"OBJECT_NAME": "YAOGAN-29", "OBJECT_ID": "2015-069A", "EPOCH": "2025-12-09T04:13:12.112896", "MEAN_MOTION": 14.82878292, "ECCENTRICITY": 4.11e-05, "INCLINATION": 98.0218, "RA_OF_ASC_NODE": 6.3358, "ARG_OF_PERICENTER": 355.7513, "MEAN_ANOMALY": 4.3696, "EPHEMERIS_TYPE": 0, "CLASSIFICATION_TYPE": "U", "NORAD_CAT_ID": 41038, "ELEMENT_SET_NO": 999, "REV_AT_EPOCH": 54246, "BSTAR": 0.00015249, "MEAN_MOTION_DOT": 1.181e-05, "MEAN_MOTION_DDOT": 0}, "tle": {"line1": "1 41038U 15069A   25343.17583464  .00001181  00000+0  15249-3 0  9996", "line2": "2 41038  98.0218   6.3358 0000411 355.7513   4.3696 14.82878292542466"}}, "geometry": {"type": "Point", "coordinates": [-169.89858905388272, 23.605192400028862]}}, {"type": "Feature", "properties": {"norad_id": 41167, "name": "KENT RIDGE 1", "group": "resource", "lat": -12.41355882573804, "lon": 111.28451923612997, "alt_km": 504.9551770641874, "timestamp": "2025-12-09T09:46:47.304320+00:00", "meta": {"OBJECT_NAME": "KENT RIDGE 1", "OBJECT_ID": "2015-077B", "EPOCH": "2025-12-08T23:18:29.879424", "MEAN_MOTION": 15.21589468, "ECCENTRICITY": 0.0008538, "INCLINATION": 14.979, "RA_OF_ASC_NODE": 239.1062, "ARG_OF_PERICENTER": 77.2496, "MEAN_ANOMALY": 282.878, "EPHEMERIS_TYPE": 0, "CLASSIFICATION_TYPE": "U", "NORAD_CAT_ID": 41167, "ELEMENT_SET_NO": 999, "REV_AT_EPOCH": 55206, "BSTAR": 0.00022039, "MEAN_MOTION_DOT": 5.884e-05, "MEAN_MOTION_DDOT": 0}, "tle": {"line1": "1 41167U 15077B   25342.97117916  .00005884  00000+0  22039-3 0  9999", "line2": "2 41167  14.9790 239.1062 0008538  77.2496 282.8780 15.21589468552065"}}, "geometry": {"type": "Point", "coordinates": [111.28451923612997, -12.41355882573804]}}, {"type": "Feature", "properties": {"norad_id": 41194, "name": "GAOFEN-4", "group": "resource", "lat": -0.15522385919009113, "lon": -29.17733580378237, "alt_km": 35798.60481875366, "timestamp": "2025-12-09T09:46:47.304333+00:00", "meta": {"OBJECT_NAME": "GAOFEN-4", "OBJECT_ID": "2015-083A", "EPOCH": "2025-12-09T00:22:47.064000", "MEAN_MOTION": 1.00270911, "ECCENTRICITY": 0.0003628, "INCLINATION": 0.1609, "RA_OF_ASC_NODE": 80.6946, "ARG_OF_PERICENTER": 106.792, "MEAN_ANOMALY": 1.9288, "EPHEMERIS_TYPE": 0, "CLASSIFICATION_TYPE": "U", "NORAD_CAT_ID": 41194, "ELEMENT_SET_NO": 999, "REV_AT_EPOCH": 3662, "BSTAR": 0, "MEAN_MOTION_DOT": -3.33e-06, "MEAN_MOTION_DDOT": 0}, "tle": {"line1": "1 41194U 15083A   25343.01582250 -.00000333  00000+0  00000+0 0  9994", "line2": "2 41194   0.1609  80.6946 0003628 106.7920   1.9288  1.00270911 36620"}}, "geometry": {"type": "Point", "coordinates": [-29.17733580378237, -0.15522385919009113]}}, {"type": "Feature", "properties": {"norad_id": 41240, "name": "JASON-3", "group": "resource", "lat": -12.323997739739236, "lon": 159.2553157377254, "alt_km": 1313.0331860447022, "timestamp": "2025-12-09T09:46:47.304345+00:00", "meta": {"OBJECT_NAME": "JASON-3", "OBJECT_ID": "2016-002A", "EPOCH": "2025-12-08T22:39:54.983232", "MEAN_MOTION": 12.87626327, "ECCENTRICITY": 0.00071318, "INCLINATION": 66.0389, "RA_OF_ASC_NODE": 165.8037, "ARG_OF_PERICENTER": 270.5682, "MEAN_ANOMALY": 89.452, "EPHEMERIS_TYPE": 0, "CLASSIFICATION_TYPE": "U", "NORAD_CAT_ID": 41240, "ELEMENT_SET_NO": 999, "REV_AT_EPOCH": 46275, "BSTAR": 4.9074051e-05, "MEAN_MOTION_DOT": -5e-07, "MEAN_MOTION_DDOT": 0}, "tle": {"line1": "1 41240U 16002A   25342.94438638 -.00000050  00000+0  49074-4 0  9994", "line2": "2 41240  66.0389 165.8037 0007131 270.5682  89.4520 12.87626327462753"}}, "geometry": {"type": "Point", "coordinates": [159.2553157377254, -12.323997739739236]}}]}